{"type": "FeatureCollection", "features": [ {"type": "Feature", "properties": {"norad_id": 35287, "name": "COSMOS 2251 DEB", "group": "cosmos-2251-debris", "lat": 54.03185289031577, "lon": -54.18911947235294, "alt_km": 755.1564944169386, "timestamp": "2025-12-09T05:43:21.122530+00:00", "meta": {"OBJECT_NAME": "COSMOS 2251 DEB", "OBJECT_ID": "1993-036AJR", "EPOCH": "2025-12-08T06:45:42.279840", "MEAN_MOTION": 14.36370501, "ECCENTRICITY": 0.00173563, "INCLINATION": 74.0304, "RA_OF_ASC_NODE": 284.3273, "ARG_OF_PERICENTER": 22.2122, "MEAN_ANOMALY": 130.0196, "EPHEMERIS_TYPE": 0, "CLASSIFICATION_TYPE": "U", "NORAD_CAT_ID": 35287, "ELEMENT_SET_NO": 999, "REV_AT_EPOCH": 86828, "BSTAR": 0.00029165774, "MEAN_MOTION_DOT": 8.29e-06, "MEAN_MOTION_DDOT": 0}, "tle": {"line1": "1 35287U 93036AJR 25342.28173935  .00000829  00000+0  29166-3 0  9995", "line2": "2 35287  74.0304 284.3273 0017356  22.2122 130.0196 14.36370501868289"}}, "geometry": {"type": "Point", "coordinates": [-54.18911947235294, 54.03185289031577]}}, {"type": "Feature", "properties": {"norad_id": 35288, "name": "COSMOS 2251 DEB", "group": "cosmos-2251-debris", "lat": -20.711798587817356, "lon": -151.8024173679183, "alt_km": 664.3805650968216, "timestamp": "2025-12-09T05:43:21.122541+00:00", "meta": {"OBJECT_NAME": "COSMOS 2251 DEB", "OBJECT_ID": "1993-036AJS", "EPOCH": "2025-12-08T18:58:17.923008", "MEAN_MOTION": 14.65390759, "ECCENTRICITY": 0.0039554, "INCLINATION": 73.9507, "RA_OF_ASC_NODE": 22.8152, "ARG_OF_PERICENTER": 256.8588, "MEAN_ANOMALY": 102.8165, "EPHEMERIS_TYPE": 0, "CLASSIFICATION_TYPE": "U", "NORAD_CAT_ID": 35288, "ELEMENT_SET_NO": 999, "REV_AT_EPOCH": 87820, "BSTAR": 0.001601, "MEAN_MOTION_DOT": 8.734e-05, "MEAN_MOTION_DDOT": 0}, "tle": {"line1": "1 35288U 93036AJS 25342.79048522  .00008734  00000+0  16010-2 0  9991", "line2": "2 35288  73.9507  22.8152 0039554 256.8588 102.8165 14.65390759878204"}}, "geometry": {"type": "Point", "coordinates": [-151.8024173679183, -20.711798587817356]}}, {"type": "Feature", "properties": {"norad_id": 35290, "name": "COSMOS 2251 DEB", "group": "cosmos-2251-debris", "lat": -61.702889440972996, "lon": 34.153696377897546, "alt_km": 635.5283542851666, "timestamp": "2025-12-09T05:43:21.122552+00:00", "meta": {"OBJECT_NAME": "COSMOS 2251 DEB", "OBJECT_ID": "1993-036AJU", "EPOCH": "2025-12-08T12:10:44.215680", "MEAN_MOTION": 14.8018119, "ECCENTRICITY": 0.00027465, "INCLINATION": 74.0052, "RA_OF_ASC_NODE": 67.7898, "ARG_OF_PERICENTER": 203.6265, "MEAN_ANOMALY": 156.4785, "EPHEMERIS_TYPE": 0, "CLASSIFICATION_TYPE": "U", "NORAD_CAT_ID": 35290, "ELEMENT_SET_NO": 999, "REV_AT_EPOCH": 87895, "BSTAR": 0.002766883, "MEAN_MOTION_DOT": 0.00021059, "MEAN_MOTION_DDOT": 0}, "tle": {"line1": "1 35290U 93036AJU 25342.50745620  .00021059  00000+0  27669-2 0  9993", "line2": "2 35290  74.0052  67.7898 0002746 203.6265 156.4785 14.80181190878953"}}, "geometry": {"type": "Point", "coordinates": [34.153696377897546, -61.702889440972996]}}, {"type": "Feature", "properties": {"norad_id": 35432, "name": "COSMOS 2251 DEB", "group": "cosmos-2251-debris", "lat": -5.325924593690416, "lon": 21.394658841692195, "alt_km": 495.53555470156516, "timestamp": "2025-12-09T05:43:21.122563+00:00", "meta": {"OBJECT_NAME": "COSMOS 2251 DEB", "OBJECT_ID": "1993-036AKA", "EPOCH": "2025-12-08T09:14:01.951584", "MEAN_MOTION": 15.21535483, "ECCENTRICITY": 0.00123385, "INCLINATION": 74.0223, "RA_OF_ASC_NODE": 24.7199, "ARG_OF_PERICENTER": 346.1042, "MEAN_ANOMALY": 13.9814, "EPHEMERIS_TYPE": 0, "CLASSIFICATION_TYPE": "U", "NORAD_CAT_ID": 35432, "ELEMENT_SET_NO": 999, "REV_AT_EPOCH": 87437, "BSTAR": 0.0061257801, "MEAN_MOTION_DOT": 0.0014095, "MEAN_MOTION_DDOT": 0}, "tle": {"line1": "1 35432U 93036AKA 25342.38474481  .00140950  00000+0  61258-2 0  9995", "line2": "2 35432  74.0223  24.7199 0012338 346.1042  13.9814 15.21535483874378"}}, "geometry": {"type": "Point", "coordinates": [21.394658841692195, -5.325924593690416]}}, {"type": "Feature", "properties": {"norad_id": 35433, "name": "COSMOS 2251 DEB", "group": "cosmos-2251-debris", "lat": -15.370910086821654, "lon": 169.37768053888175, "alt_km": 796.7503883539139, "timestamp": "2025-12-09T05:43:21.122574+00:00", "meta": {"OBJECT_NAME": "COSMOS 2251 DEB", "OBJECT_ID": "1993-036AKB", "EPOCH": "2025-12-05T19:38:16.327392", "MEAN_MOTION": 14.34730306, "ECCENTRICITY": 0.00254596, "INCLINATION": 74.0335, "RA_OF_ASC_NODE": 351.128, "ARG_OF_PERICENTER": 48.4343, "MEAN_ANOMALY": 128.9694, "EPHEMERIS_TYPE": 0, "CLASSIFICATION_TYPE": "U", "NORAD_CAT_ID": 35433, "ELEMENT_SET_NO": 999, "REV_AT_EPOCH": 86481, "BSTAR": 0.00044039966, "MEAN_MOTION_DOT": 1.226e-05, "MEAN_MOTION_DDOT": 0}, "tle": {"line1": "1 35433U 93036AKB 25339.81824453  .00001226  00000+0  44040-3 0  9991", "line2": "2 35433  74.0335 351.1280 0025459  48.4343 128.9694 14.34730306864810"}}, "geometry": {"type": "Point", "coordinates": [169.37768053888175, -15.370910086821654]}}, {"type": "Feature", "properties": {"norad_id": 35434, "name": "COSMOS 2251 DEB", "group": "cosmos-2251-debris", "lat": -41.9425081637745, "lon": 54.845945417404025, "alt_km": 787.8414347835378, "timestamp": "2025-12-09T05:43:21.122584+00:00", "meta": {"OBJECT_NAME": "COSMOS 2251 DEB", "OBJECT_ID": "1993-036AKC", "EPOCH": "2025-12-07T22:21:11.338272", "MEAN_MOTION": 14.25665764, "ECCENTRICITY": 0.00875677, "INCLINATION": 74.0404, "RA_OF_ASC_NODE": 222.3034, "ARG_OF_PERICENTER": 294.0481, "MEAN_ANOMALY": 65.1521, "EPHEMERIS_TYPE": 0, "CLASSIFICATION_TYPE": "U", "NORAD_CAT_ID": 35434, "ELEMENT_SET_NO": 999, "REV_AT_EPOCH": 86049, "BSTAR": 0.00094505461, "MEAN_MOTION_DOT": 2.307e-05, "MEAN_MOTION_DDOT": 0}, "tle": {"line1": "1 35434U 93036AKC 25341.93138123  .00002307  00000+0  94505-3 0  9992", "line2": "2 35434  74.0404 222.3034 0087567 294.0481  65.1521 14.25665764860490"}}, "geometry": {"type": "Point", "coordinates": [54.845945417404025, -41.9425081637745]}}, {"type": "Feature", "properties": {"norad_id": 35435, "name": "COSMOS 2251 DEB", "group": "cosmos-2251-debris", "lat": 61.278035233113144, "lon": -100.59164665268096, "alt_km": 628.4311258062962, "timestamp": "2025-12-09T05:43:21.122595+00:00", "meta": {"OBJECT_NAME": "COSMOS 2251 DEB", "OBJECT_ID": "1993-036AKD", "EPOCH": "2025-12-06T15:33:19.570752", "MEAN_MOTION": 14.78155636, "ECCENTRICITY": 0.00089158, "INCLINATION": 74.011, "RA_OF_ASC_NODE": 116.0521, "ARG_OF_PERICENTER": 210.6381, "MEAN_ANOMALY": 164.7127, "EPHEMERIS_TYPE": 0, "CLASSIFICATION_TYPE": "U", "NORAD_CAT_ID": 35435, "ELEMENT_SET_NO": 999, "REV_AT_EPOCH": 87449, "BSTAR": 0.0041982547, "MEAN_MOTION_DOT": 0.00030535, "MEAN_MOTION_DDOT": 0}, "tle": {"line1": "1 35435U 93036AKD 25340.64814318  .00030535  00000+0  41983-2 0  9992", "line2": "2 35435  74.0110 116.0521 0008915 210.6381 164.7127 14.78155636874491"}}, "geometry": {"type": "Point", "coordinates": [-100.59164665268096, 61.278035233113144]}}, {"type": "Feature", "properties": {"norad_id": 35439, "name": "COSMOS 2251 DEB", "group": "cosmos-2251-debris", "lat": 41.54541600665651, "lon": 155.44850084701855, "alt_km": 919.7700402795699, "timestamp": "2025-12-09T05:43:21.122605+00:00", "meta": {"OBJECT_NAME": "COSMOS 2251 DEB", "OBJECT_ID": "1993-036AKH", "EPOCH": "2025-12-08T17:33:33.231168", "MEAN_MOTION": 13.92782846, "ECCENTRICITY": 0.0241739, "INCLINATION": 74.0192, "RA_OF_ASC_NODE": 141.6061, "ARG_OF_PERICENTER": 311.7957, "MEAN_ANOMALY": 68.9858, "EPHEMERIS_TYPE": 0, "CLASSIFICATION_TYPE": "U", "NORAD_CAT_ID": 35439, "ELEMENT_SET_NO": 999, "REV_AT_EPOCH": 83905, "BSTAR": 0.0023366, "MEAN_MOTION_DOT": 3.821e-05, "MEAN_MOTION_DDOT": 0}, "tle": {"line1": "1 35439U 93036AKH 25342.73163462  .00003821  00000+0  23366-2 0  9998", "line2": "2 35439  74.0192 141.6061 0241739 311.7957  68.9858 13.92782846839056"}}, "geometry": {"type": "Point", "coordinates": [155.44850084701855, 41.54541600665651]}}, {"type": "Feature", "properties": {"norad_id": 35440, "name": "COSMOS 2251 DEB", "group": "cosmos-2251-debris", "lat": -51.211281060730336, "lon": 55.30743200892274, "alt_km": 697.0756725581232, "timestamp": "2025-12-09T05:43:21.122615+00:00", "meta": {"OBJECT_NAME": "COSMOS 2251 DEB", "OBJECT_ID": "1993-036AKJ", "EPOCH": "2025-12-08T09:02:26.366784", "MEAN_MOTION": 14.68778885, "ECCENTRICITY": 0.0069124, "INCLINATION": 74.0147, "RA_OF_ASC_NODE": 216.0804, "ARG_OF_PERICENTER": 357.9704, "MEAN_ANOMALY": 2.1175, "EPHEMERIS_TYPE": 0, "CLASSIFICATION_TYPE": "U", "NORAD_CAT_ID": 35440, "ELEMENT_SET_NO": 999, "REV_AT_EPOCH": 68701, "BSTAR": 0.00070103994, "MEAN_MOTION_DOT": 4.21e-05, "MEAN_MOTION_DDOT": 0}, "tle": {"line1": "1 35440U 93036AKJ 25342.37669406  .00004210  00000+0  70104-3 0  9995", "line2": "2 35440  74.0147 216.0804 0069124 357.9704   2.1175 14.68778885687019"}}, "geometry": {"type": "Point", "coordinates": [55.30743200892274, -51.211281060730336]}}, {"type": "Feature", "properties": {"norad_id": 35441, "name": "COSMOS 2251 DEB", "group": "cosmos-2251-debris", "lat": -73.94890772238024, "lon": -153.94122076158828, "alt_km": 680.7293212349477, "timestamp": "2025-12-09T05:43:21.122626+00:00", "meta": {"OBJECT_NAME": "COSMOS 2251 DEB", "OBJECT_ID": "1993-036AKK", "EPOCH": "2025-12-08T15:22:12.064224", "MEAN_MOTION": 14.62488563, "ECCENTRICITY": 0.0037245, "INCLINATION": 74.1346, "RA_OF_ASC_NODE": 305.9066, "ARG_OF_PERICENTER": 204.2337, "MEAN_ANOMALY": 155.708, "EPHEMERIS_TYPE": 0, "CLASSIFICATION_TYPE": "U", "NORAD_CAT_ID": 35441, "ELEMENT_SET_NO": 999, "REV_AT_EPOCH": 87370, "BSTAR": 0.0024987, "MEAN_MOTION_DOT": 0.00012785, "MEAN_MOTION_DDOT": 0}, "tle": {"line1": "1 35441U 93036AKK 25342.64041741  .00012785  00000+0  24987-2 0  9995", "line2": "2 35441  74.1346 305.9066 0037245 204.2337 155.7080 14.62488563873703"}}, "geometry": {"type": "Point", "coordinates": [-153.94122076158828, -73.94890772238024]}}]}